{
"type": "FeatureCollection",
"name": "Thueringia",
"crs": { "type": "name", "properties": { "name": "urn:ogc:def:crs:EPSG::25832" } },
"features": [
{ "type": "Feature", "properties": { "OBJID": "DEBKGVG3000000C4", "BEGINN": "2021-09-01", "ADE": 2, "GF": 9, "BSG": 1, "LKZ": "TH", "ARS": "16", "AGS": "16", "SDV_ARS": "160510000000", "GEN": "Thüringen", "BEZ": "Freistaat", "IBZ": 21, "BEM": "--", "NBD": "ja", "SN_L": "16", "SN_R": "0", "SN_K": "00", "SN_V1": "00", "SN_V2": "00", "SN_G": "000", "FK_S3": "0", "NUTS": "DEG", "ARS_0": "160000000000", "AGS_0": "16000000", "WSK": "2014-02-01" }, "geometry": { "type": "MultiPolygon", "coordinates": [ [ [ [ 629081.321523014223203, 5721453.48584916908294 ], [ 631221.654487176565453, 5719490.604108634404838 ], [ 632723.979712314438075, 5720274.206774250604212 ], [ 633137.654485814855434, 5720114.554205238819122 ], [ 634125.47706484736409, 5718708.50417420361191 ], [ 634158.735441342461854, 5718600.08366079442203 ], [ 634153.747712427517399, 5718501.888354580849409 ], [ 634126.096006133244373, 5718386.207741386257112 ], [ 634034.338641626643948, 5718078.02872911747545 ], [ 634006.682285367278382, 5718011.399349358864129 ], [ 633966.954870399204083, 5717947.521306674927473 ], [ 633689.947407894767821, 5717545.44954243209213 ], [ 633293.818982493132353, 5717533.301053849980235 ], [ 632511.28032245778013, 5717523.223842907696962 ], [ 631810.354672036366537, 5717535.844132776372135 ], [ 631517.096190236974508, 5717680.959223937243223 ], [ 631305.09332319535315, 5717914.827638434246182 ], [ 631261.711479853023775, 5718564.551889148540795 ], [ 631048.311458994634449, 5718428.040332702919841 ], [ 630774.877146839513443, 5717900.926317733712494 ], [ 630306.455945229507051, 5715951.466271207667887 ], [ 631402.449208222562447, 5713809.92915513087064 ], [ 634205.704484263202175, 5710857.615752065554261 ], [ 634051.433770423405804, 5709205.858576077967882 ], [ 635056.212413109489717, 5707069.396958272904158 ], [ 635964.057888278504834, 5706388.348098113201559 ], [ 636999.494289811002091, 5705245.456304307095706 ], [ 637022.971235686563887, 5702148.907321210950613 ], [ 637593.209804184851237, 5699772.255043903365731 ], [ 637558.665168826119043, 5699260.045679666101933 ], [ 639656.861284127226099, 5699449.198695708066225 ], [ 638762.012721534469165, 5698421.858645998872817 ], [ 638560.124742774059996, 5698162.467118658125401 ], [ 638913.165699829463847, 5698128.663040161132812 ], [ 639366.425235191360116, 5698088.903400223702192 ], [ 639826.526143863797188, 5698106.340038482099771 ], [ 640415.306008472573012, 5698194.484235211275518 ], [ 640657.029591848840937, 5698268.506880946457386 ], [ 641510.954435928724706, 5698704.426315755583346 ], [ 642411.186304485541768, 5699225.380632059648633 ], [ 642755.991030959645286, 5699544.763032022863626 ], [ 642993.306923550320789, 5699589.667347189038992 ], [ 643332.238585787010379, 5699609.628079619258642 ], [ 644004.871166473720223, 5699465.260546635836363 ], [ 647277.336935032741167, 5698237.039466602727771 ], [ 647931.928329017711803, 5697850.048857880756259 ], [ 647849.299275061581284, 5697241.735219235531986 ], [ 649731.448884218581952, 5696693.711451896466315 ], [ 653133.905677794246003, 5697233.940959030762315 ], [ 653632.401861649355851, 5697430.350819493643939 ], [ 655120.574824585812166, 5697253.644404517486691 ], [ 656258.432013806886971, 5696879.552011931315064 ], [ 656717.264706999529153, 5696764.826786204241216 ], [ 658210.622190022841096, 5696824.470348973758519 ], [ 658915.096464355709031, 5697033.121243296191096 ], [ 660257.443819454638287, 5697574.189086705446243 ], [ 661440.492605244740844, 5698072.956651206128299 ], [ 662024.26675953133963, 5696991.754055819474161 ], [ 662134.039839282399043, 5695836.760291402228177 ], [ 663285.969239250058308, 5695314.783728826791048 ], [ 664296.370823047240265, 5695153.298802397213876 ], [ 664525.704849409172311, 5695198.042368314228952 ], [ 665329.939901406411082, 5695375.702838971279562 ], [ 666796.892104223952629, 5694186.439490628428757 ], [ 667262.042550739250146, 5691418.920786153525114 ], [ 668139.0087950238958, 5690637.003717875108123 ], [ 669178.455793821020052, 5690646.78070217743516 ], [ 668560.345589587697759, 5689958.874205689877272 ], [ 668566.80041556339711, 5689643.6580153061077 ], [ 668919.515860877931118, 5688992.151653057895601 ], [ 669584.199737093993463, 5688359.044445022940636 ], [ 670790.985009085969068, 5687554.827900493517518 ], [ 672534.459849091828801, 5686012.741132161580026 ], [ 672553.367410834995098, 5685724.804391589015722 ], [ 672054.07778241741471, 5684879.653676156885922 ], [ 668909.42621635471005, 5679941.924689637497067 ], [ 667714.32227987900842, 5678902.379018894396722 ], [ 667484.081961010815576, 5678901.680343207903206 ], [ 667259.825853528920561, 5678902.103541804477572 ], [ 666617.444887419813313, 5679915.105035021901131 ], [ 666398.073755380464718, 5679774.473397803492844 ], [ 666319.757973288418725, 5679687.779596517793834 ], [ 665884.619577366858721, 5679083.235496884211898 ], [ 665300.816599461599253, 5678111.25651128590107 ], [ 665176.994299847749062, 5677115.64185066986829 ], [ 666822.80682801711373, 5675840.81516526453197 ], [ 668221.889042629743926, 5675716.216686385683715 ], [ 669593.264187208958901, 5676262.796237779781222 ], [ 669748.062939625699073, 5676231.920203012414277 ], [ 669835.632843691157177, 5676208.680958936922252 ], [ 670822.285603984026238, 5675838.39274138584733 ], [ 673823.661441973410547, 5671570.795798296108842 ], [ 673790.267870087875053, 5671244.745526080951095 ], [ 673117.119192557875067, 5669644.229407062754035 ], [ 672886.192038868088275, 5669235.064681963995099 ], [ 671999.195266982540488, 5668007.621745863929391 ], [ 672481.176012685755268, 5665284.381707870401442 ], [ 673445.819099674350582, 5664716.374868229031563 ], [ 673949.187843641731888, 5664431.295945207588375 ], [ 674029.211613217834383, 5664139.596560737118125 ], [ 678182.133281572023407, 5664326.308312244713306 ], [ 678580.60581645660568, 5665406.653920635581017 ], [ 679699.367593813454732, 5666071.187964304350317 ], [ 680111.264273615903221, 5666099.604380805045366 ], [ 682263.361008473439142, 5665627.856920911930501 ], [ 685103.290902085835114, 5665352.326406325213611 ], [ 686672.788123671198264, 5665615.575039180926979 ], [ 688535.93336266244296, 5664340.967481078580022 ], [ 688874.123360753525048, 5663564.923747985623777 ], [ 688978.09838135773316, 5663031.398203011602163 ], [ 689185.230080300825648, 5662004.385052725672722 ], [ 690119.525405200081877, 5661159.37067845929414 ], [ 692938.23915096744895, 5659765.978147589601576 ], [ 694377.13250954542309, 5659266.6089120907709 ], [ 696656.85284645948559, 5658679.203309125266969 ], [ 698437.356866164715029, 5659402.263736435212195 ], [ 701692.60067821177654, 5660180.366225453093648 ], [ 702042.986370464786887, 5660035.30527987703681 ], [ 702196.703882507863455, 5659960.333131304010749 ], [ 703572.077244037995115, 5659190.305041609331965 ], [ 708486.72957385762129, 5656117.1724594803527 ], [ 708962.678555262507871, 5655706.304041202180088 ], [ 711591.495881708106026, 5652382.326661584898829 ], [ 711820.085688654216938, 5651627.97800179105252 ], [ 711903.932687855092809, 5650555.285374285653234 ], [ 712954.871944125043228, 5651119.315358417108655 ], [ 713222.994608052773401, 5651179.829429310746491 ], [ 717043.723487905343063, 5651836.123464952223003 ], [ 717893.983972728950903, 5651583.015918745659292 ], [ 719485.899304419290274, 5650902.365190360695124 ], [ 720795.891128706978634, 5650397.225270368158817 ], [ 722207.612867499934509, 5650011.29784310888499 ], [ 722049.290866009891033, 5650905.300601987168193 ], [ 722498.590681183850393, 5651414.090850808657706 ], [ 722644.130302723264322, 5651545.217600105330348 ], [ 723326.574223075644113, 5652062.749382532201707 ], [ 723416.979438328649849, 5652048.561287455260754 ], [ 724647.753592528752051, 5649822.458006877452135 ], [ 725769.251382063841447, 5647848.460019822232425 ], [ 726352.625376424868591, 5648413.044157667085528 ], [ 726600.49393052328378, 5648535.228691568598151 ], [ 727529.91134007985238, 5649664.600550279952586 ], [ 727589.351704008178785, 5649794.985971382819116 ], [ 727633.253779792110436, 5649951.088717395439744 ], [ 727645.339286920614541, 5650046.466514822095633 ], [ 727654.341074811527506, 5650145.78543720766902 ], [ 727641.284626748529263, 5650295.729199346154928 ], [ 727596.666422501672059, 5650421.999749169684947 ], [ 727072.623668350977823, 5650536.545332613401115 ], [ 727362.02588551514782, 5651869.250127670355141 ], [ 727467.312527072033845, 5652207.848835406824946 ], [ 728626.944626972544938, 5653390.989747194573283 ], [ 728830.462316110031679, 5653675.511650814674795 ], [ 729143.981727839563973, 5654115.478032190352678 ], [ 730697.640964423539117, 5656803.74324151687324 ], [ 730804.654365795548074, 5657106.340442855842412 ], [ 730854.618387216702104, 5658442.232640955597162 ], [ 730349.580623747664504, 5659345.249772836454213 ], [ 730000.791079747723415, 5659409.259136944077909 ], [ 728949.695028481190093, 5659144.552429555915296 ], [ 727776.558431413024664, 5659021.567463301122189 ], [ 727766.484809249755926, 5659763.392810880206525 ], [ 728286.431425545015372, 5662263.436365804634988 ], [ 729898.329532153788023, 5664346.542799623683095 ], [ 729879.656178300734609, 5665263.750582821667194 ], [ 731582.481159063288942, 5665539.023108649998903 ], [ 733188.281552407424897, 5666644.247100981883705 ], [ 733316.98288058815524, 5666667.898496166802943 ], [ 733898.478591112536378, 5666389.327320922166109 ], [ 734918.038502472336404, 5665794.20935336779803 ], [ 734944.485990917659365, 5665183.874663875438273 ], [ 734988.901279091020115, 5664428.694776145741343 ], [ 735435.093970774905756, 5664106.301308107562363 ], [ 736422.132801135652699, 5663879.035740240477026 ], [ 739069.944690258125775, 5663830.773842055350542 ], [ 739627.606495277490467, 5664133.547829620540142 ], [ 742136.634324600570835, 5664903.671541961841285 ], [ 742319.981778464629315, 5664703.102552812546492 ], [ 742625.432941275532357, 5663029.837723820470273 ], [ 743164.964054818614386, 5662698.310688863508403 ], [ 745403.478198221884668, 5661408.853696022182703 ], [ 745621.526925858925097, 5659353.210863466374576 ], [ 745935.841387305990793, 5657536.875435287132859 ], [ 746277.139737158780918, 5657448.667325510643423 ], [ 746555.808555308263749, 5657633.594216254539788 ], [ 746471.327150307130069, 5658686.456885260529816 ], [ 746791.164429016411304, 5658717.993629385717213 ], [ 747577.474929899792187, 5658563.711027632467449 ], [ 748161.773989389301278, 5658444.38627614825964 ], [ 748427.664817010285333, 5656447.766097337007523 ], [ 749081.427150216186419, 5655570.693711643107235 ], [ 750760.634631544002332, 5654748.474594917148352 ], [ 751171.932853486738168, 5654616.605623124167323 ], [ 752160.439370517502539, 5654962.161301653832197 ], [ 753032.00960187939927, 5655690.941638325341046 ], [ 753173.638635935261846, 5655522.548421474173665 ], [ 753924.449833720689639, 5654206.738103845156729 ], [ 753976.947660897159949, 5653939.389805959537625 ], [ 754415.54481434286572, 5651918.154036140069366 ], [ 754699.891888201702386, 5650786.164909773506224 ], [ 755158.5643442615401, 5649354.230877882800996 ], [ 755624.588066337979399, 5648597.486231097951531 ], [ 755851.406692300923169, 5648277.578980152495205 ], [ 756235.37760322378017, 5647912.777347379364073 ], [ 756579.371765476418659, 5647741.463126007467508 ], [ 756689.619510966003872, 5647737.684760366566479 ], [ 756749.221829543705098, 5647267.160105747170746 ], [ 755912.137720198137686, 5645425.394165302626789 ], [ 751321.692991145071574, 5644950.943322668783367 ], [ 750712.611007329891436, 5645057.802318818867207 ], [ 750309.247483585611917, 5645392.158757754601538 ], [ 749945.917637610109523, 5645430.876712271943688 ], [ 747880.065853877691552, 5644923.376765681430697 ], [ 745080.806530544301495, 5643839.21787809766829 ], [ 744965.55261736351531, 5643793.820995411835611 ], [ 743337.259728811914101, 5642253.672296701930463 ], [ 742365.96218867553398, 5640167.015944845974445 ], [ 742702.691516592982225, 5639312.562657459639013 ], [ 742203.734073385945521, 5638382.141467038542032 ], [ 740798.030098773771897, 5637522.544424904510379 ], [ 740022.632645900128409, 5638379.143100419081748 ], [ 739478.901766475639306, 5638525.384905179962516 ], [ 738351.043687601806596, 5638685.863237304612994 ], [ 737759.245674366713502, 5638534.705577983520925 ], [ 737479.139910496887751, 5638420.892938926815987 ], [ 735742.407359803910367, 5637244.18354694917798 ], [ 735643.225658752257004, 5637047.906415428034961 ], [ 735705.588578681228682, 5635496.968833999708295 ], [ 731012.252703569596633, 5633748.915349195711315 ], [ 729556.280435753404163, 5633895.770183579996228 ], [ 728948.841432237997651, 5634669.58965331595391 ], [ 728939.978746990673244, 5634215.783803006634116 ], [ 728505.00164085009601, 5633603.209077900275588 ], [ 729271.911576418671757, 5632525.777038854546845 ], [ 729251.805583819048479, 5631417.225659471936524 ], [ 729478.052760620368645, 5631370.717288862913847 ], [ 730084.364818285452202, 5631247.760960227809846 ], [ 730090.371555430348963, 5631247.882117284461856 ], [ 730610.372606812277809, 5631283.404878054745495 ], [ 731690.084399270010181, 5631570.551333454437554 ], [ 731935.664674385683611, 5630863.516135120764375 ], [ 731588.051050822017714, 5629827.079803002998233 ], [ 730288.617915717419237, 5628318.842684620060027 ], [ 729852.649352297303267, 5628337.092394354753196 ], [ 728798.106129379943013, 5628739.417733538895845 ], [ 728633.800951819284819, 5629041.523344356566668 ], [ 728598.48476592078805, 5629054.830652575939894 ], [ 727945.701193058514036, 5628006.257202908396721 ], [ 727565.632809497881681, 5626294.282155176624656 ], [ 728278.033311554929242, 5625328.300080569460988 ], [ 728701.042813829379156, 5625306.779044597409666 ], [ 729030.492600940982811, 5625356.472610951401293 ], [ 730330.003346209065057, 5625817.237920124083757 ], [ 731019.525743973790668, 5624992.969336282461882 ], [ 730821.703463300364092, 5624473.277888457290828 ], [ 730350.934517499292269, 5623782.867556134238839 ], [ 729666.902778379735537, 5623240.378500741906464 ], [ 730428.144104020204395, 5620990.600371926091611 ], [ 731398.541418134933338, 5620090.854722050018609 ], [ 731645.805689524160698, 5620044.757110080681741 ], [ 731742.283389270771295, 5620027.671814513392746 ], [ 733608.857100768014789, 5619877.937303881160915 ], [ 734180.242020788602531, 5620246.917414838448167 ], [ 734766.688963280757889, 5619767.023485141806304 ], [ 734543.336902703740634, 5619270.852097301743925 ], [ 734369.913147607934661, 5617685.176906350068748 ], [ 733061.800151537288912, 5616204.899669911712408 ], [ 730798.102523857727647, 5613791.216467145830393 ], [ 728739.072911561001092, 5613404.421153350733221 ], [ 725540.987199914408848, 5611648.97767270449549 ], [ 724775.045649336418137, 5611595.558437233790755 ], [ 724451.262862565810792, 5612760.606364983133972 ], [ 723790.092035989975557, 5613573.421667507849634 ], [ 723103.464573358534835, 5613559.633269226178527 ], [ 722662.340315043460578, 5613337.493567600846291 ], [ 720504.509929227293469, 5609547.295984509401023 ], [ 720458.855600055539981, 5609427.226785785518587 ], [ 720244.969177048653364, 5608709.012756326235831 ], [ 720264.508314381353557, 5608683.371492410078645 ], [ 721167.912870924221352, 5608372.069154659286141 ], [ 722397.950283575803041, 5608100.348803116008639 ], [ 722691.299410112900659, 5608451.681671718135476 ], [ 723496.428543289657682, 5608447.803712006658316 ], [ 723641.524676074855961, 5608352.584223535843194 ], [ 723774.110138356685638, 5607882.623518493026495 ], [ 723783.722130073816516, 5607802.711893773637712 ], [ 723777.682184523204342, 5607704.462078155949712 ], [ 723728.53279563144315, 5607308.961969228461385 ], [ 723542.794079626444727, 5607184.0780533188954 ], [ 723335.610547357937321, 5607079.794011280871928 ], [ 722004.771059036487713, 5607085.156238915398717 ], [ 720828.093667653622106, 5606343.637056128121912 ], [ 719694.655493015190586, 5607391.290410535410047 ], [ 718466.669430652400479, 5607461.785136898048222 ], [ 717990.701413013972342, 5607280.019847202114761 ], [ 718009.50473795668222, 5606392.262770995497704 ], [ 717933.55008466495201, 5604886.823900143615901 ], [ 715929.265781913651153, 5604574.302519496530294 ], [ 714941.461615968029946, 5604502.43721657898277 ], [ 713648.718196738278493, 5606056.49400130007416 ], [ 714255.35375367780216, 5606761.533443330787122 ], [ 714461.880797192687169, 5607297.344592488370836 ], [ 714906.767199403140694, 5609027.443554720841348 ], [ 714507.014948432333767, 5609688.264529749751091 ], [ 712999.518207783461548, 5611662.520143436267972 ], [ 713524.050745973130688, 5612316.869791302829981 ], [ 713703.60004690522328, 5612599.829069507308304 ], [ 712836.817548125167377, 5613630.735865155234933 ], [ 712174.973007152089849, 5613382.138155397959054 ], [ 710786.218832893762738, 5612037.582014597952366 ], [ 711062.555869518779218, 5611340.254722017794847 ], [ 711447.027094369521365, 5610842.346873163245618 ], [ 710864.49982936331071, 5610283.966381915844977 ], [ 709748.990803491557017, 5609442.549003014340997 ], [ 708424.531851210165769, 5608635.989402923732996 ], [ 706994.950528385001235, 5607879.393089092336595 ], [ 707439.303448032587767, 5606691.849964805878699 ], [ 707712.234143057954498, 5606013.492953358218074 ], [ 707141.332271484774537, 5605325.21066133864224 ], [ 705987.694712385651655, 5604338.895715933293104 ], [ 704576.759283781866543, 5604001.215552906505764 ], [ 704389.549337678938173, 5603950.403507352806628 ], [ 704262.035281734075397, 5603868.750648283399642 ], [ 703639.669184322701767, 5603051.301445443183184 ], [ 703519.918977677240036, 5602582.341290002688766 ], [ 704672.441300884238444, 5600078.42559512052685 ], [ 705599.90137957513798, 5600060.972113152965903 ], [ 706354.964305915986188, 5600153.194782884791493 ], [ 706916.79276472562924, 5600295.612997062504292 ], [ 707931.936441333033144, 5600249.876073457300663 ], [ 709778.056062657851726, 5597656.657226317562163 ], [ 710288.546645023860037, 5596912.957943432964385 ], [ 710346.817343111615628, 5596802.990127881988883 ], [ 710379.64720069267787, 5596613.413235226646066 ], [ 708883.875121467048302, 5593909.24588777590543 ], [ 708459.294059673557058, 5593812.645657214336097 ], [ 706210.026701377471909, 5593140.900205357000232 ], [ 705468.484051753184758, 5592573.410465669818223 ], [ 705231.440683834021911, 5591910.890592661686242 ], [ 705876.285749173723161, 5591105.817748991772532 ], [ 706889.580437060678378, 5590950.871028847061098 ], [ 707914.252579992753454, 5590828.184668586589396 ], [ 707869.829997970722616, 5590345.723895840346813 ], [ 707546.429088273085654, 5589895.730890361592174 ], [ 707229.879513910855167, 5589904.420195297338068 ], [ 706961.808042481774464, 5589841.995480662211776 ], [ 704841.417768174433149, 5588884.53520209249109 ], [ 704720.043790902709588, 5588796.009183567948639 ], [ 704637.258385458844714, 5588630.161935996264219 ], [ 704452.767305534216575, 5588142.908501010388136 ], [ 703727.252735060174018, 5587124.238747959956527 ], [ 700720.54931072879117, 5585782.68197571951896 ], [ 700606.183889769483358, 5585794.414768602699041 ], [ 700472.566691526444629, 5585867.829681637696922 ], [ 700381.13953175523784, 5585934.080736845731735 ], [ 700345.37324768200051, 5586020.466956062242389 ], [ 700330.484385767951608, 5586114.275978054851294 ], [ 699976.973001280683093, 5586921.144912024028599 ], [ 699175.426114014000632, 5588254.667082072235644 ], [ 699109.837424942525104, 5588330.443356659263372 ], [ 698639.228087249328382, 5588834.620200579985976 ], [ 698548.581330264918506, 5588861.840599350631237 ], [ 698453.349318094318733, 5588867.94391671102494 ], [ 697410.576762569020502, 5588746.972544610500336 ], [ 697327.815757127362303, 5588730.302297278307378 ], [ 695486.587724115466699, 5588287.012435306794941 ], [ 694743.38936700753402, 5587704.505983745679259 ], [ 691831.469176934682764, 5586436.914038174785674 ], [ 686613.476082950946875, 5584899.961464545689523 ], [ 686483.249294667970389, 5584904.364782941527665 ], [ 686346.494963376084343, 5584934.665034096688032 ], [ 686227.353829107363708, 5584985.336799399927258 ], [ 686125.82473881682381, 5585056.385061936452985 ], [ 685004.931584544479847, 5586141.145620813593268 ], [ 684615.184903157409281, 5586457.692617933265865 ], [ 684540.09257402154617, 5586508.243318565189838 ], [ 684436.201893417281099, 5586547.208543984219432 ], [ 684350.924559758044779, 5586556.513297401368618 ], [ 684274.814063110738061, 5586557.99364809691906 ], [ 682895.053750869003125, 5586272.09552506916225 ], [ 682710.253058567410335, 5586202.324090939946473 ], [ 682529.339227537275292, 5585938.42511766590178 ], [ 682439.786105829058215, 5585611.287358903326094 ], [ 682452.120658886036836, 5585195.094467931427062 ], [ 682323.923854814027436, 5584798.10597247350961 ], [ 681869.128317683120258, 5584363.552277989685535 ], [ 679892.849084263434634, 5583923.574761372990906 ], [ 679189.570316914469004, 5583950.535166683606803 ], [ 677507.055686279200017, 5585988.00808799918741 ], [ 676399.52372280030977, 5589453.454901080578566 ], [ 676123.559276733314618, 5589587.069513696245849 ], [ 674094.210644819308072, 5589449.275124119594693 ], [ 672165.447842370951548, 5590535.751379766501486 ], [ 671883.178670372115448, 5590734.297299372032285 ], [ 671784.858366033178754, 5590994.596743741072714 ], [ 671720.233418204355985, 5591371.687711147591472 ], [ 671703.116543248528615, 5591476.456123007461429 ], [ 671605.15938533260487, 5593913.005567393265665 ], [ 671572.873108344618231, 5596417.95652174577117 ], [ 671594.904262705240399, 5596467.449771799147129 ], [ 672472.389718861901201, 5596189.767612470313907 ], [ 672649.986668485915288, 5596169.309473811648786 ], [ 672791.549945014179684, 5596248.230888869613409 ], [ 673003.901467764400877, 5596790.060262135230005 ], [ 673014.629081995226443, 5597003.49659439176321 ], [ 673008.637571510858834, 5597102.480993401259184 ], [ 672987.035757471458055, 5597181.129064065404236 ], [ 672429.776097946800292, 5598061.868157292716205 ], [ 672239.828891844605096, 5598348.356246819719672 ], [ 672087.349077336024493, 5598563.519606282934546 ], [ 671997.623066322412342, 5598644.805420010350645 ], [ 671922.651846540626138, 5598689.344955129548907 ], [ 671803.990847328910604, 5598715.987761350348592 ], [ 668374.10520891752094, 5599329.756527837365866 ], [ 667924.697043622843921, 5599376.778704381547868 ], [ 666337.435049954219721, 5599109.621832629665732 ], [ 666196.190096607897431, 5599064.738355797715485 ], [ 665380.65210941771511, 5597855.124470973387361 ], [ 664902.469490286894143, 5596595.24052494764328 ], [ 664744.44974258961156, 5595841.306808666326106 ], [ 664677.537555270362645, 5595733.85477557964623 ], [ 663340.984199372003786, 5595146.428372787311673 ], [ 662354.756566396448761, 5595108.587756179273129 ], [ 661378.030571208451875, 5594747.615242387168109 ], [ 660694.530861396808177, 5594489.632252297364175 ], [ 660368.463239019270986, 5594626.221558261662722 ], [ 660136.086697670631111, 5594633.562228327617049 ], [ 659684.776097986847162, 5594477.344371638260782 ], [ 659460.792472298024222, 5594216.588816124014556 ], [ 659309.735334748635069, 5593514.864378919824958 ], [ 659317.633074185578153, 5593370.880202219821513 ], [ 659384.727131477789953, 5593220.077791640534997 ], [ 659698.687215849291533, 5592839.006406737491488 ], [ 659800.126098728505895, 5592622.830305683426559 ], [ 660735.765173208317719, 5590245.266286201775074 ], [ 661026.219577546347864, 5589439.300883374176919 ], [ 661037.130708978860639, 5589394.475376785732806 ], [ 661046.058749131625518, 5589348.609567160718143 ], [ 661053.170741706620902, 5588994.405140689574182 ], [ 660967.303488021250814, 5587338.058661527000368 ], [ 661383.026809039292857, 5584877.986408434808254 ], [ 661964.356118130148388, 5583243.0432616956532 ], [ 662427.636802126653492, 5581254.390246586874127 ], [ 662389.625680307624862, 5581003.385506249964237 ], [ 662145.639081363216974, 5580741.245068327523768 ], [ 661098.760368305956945, 5580434.985749217681587 ], [ 660656.106879254803061, 5576949.784482016228139 ], [ 660673.201388587011024, 5576846.025643642060459 ], [ 660974.59103718737606, 5574441.770155159756541 ], [ 661142.007047740975395, 5571628.457614249549806 ], [ 660608.765877958387136, 5570965.172932810150087 ], [ 660216.376132939825766, 5570766.143981536850333 ], [ 658611.503816702053882, 5571785.004734691232443 ], [ 657860.269615911529399, 5572511.657652011141181 ], [ 656533.160336455563083, 5573454.988462373614311 ], [ 656482.374890604987741, 5573441.957131718285382 ], [ 656095.108060406870209, 5572087.954609177075326 ], [ 655991.015508631127886, 5571037.90404224768281 ], [ 655883.421860339585692, 5570912.635638669133186 ], [ 655232.707029396202415, 5570818.531962335109711 ], [ 652928.049595926771872, 5572544.998486478812993 ], [ 652572.451289943186566, 5573008.305232039652765 ], [ 651930.235235998523422, 5574188.525670840404928 ], [ 651828.137469834997319, 5574737.984200224280357 ], [ 651875.829960655304603, 5575454.596023233607411 ], [ 652284.494335019495338, 5576039.318721471354365 ], [ 653225.931150636053644, 5576759.841507386416197 ], [ 653637.722827186924405, 5576839.162250669673085 ], [ 653735.887311265803874, 5576985.263477610424161 ], [ 653652.31280793773476, 5577559.123296391218901 ], [ 653595.455641764216125, 5577749.160465594381094 ], [ 652023.87327422411181, 5579701.480207793414593 ], [ 650466.108386512380093, 5581562.976290688849986 ], [ 650275.542767426231876, 5581632.219751299358904 ], [ 649411.352528284769505, 5581601.858559781685472 ], [ 648534.153431491809897, 5581372.051762104034424 ], [ 648187.893422969384119, 5580322.143202320672572 ], [ 645420.988652622909285, 5578945.400693102739751 ], [ 644959.772063180571422, 5579035.2297528013587 ], [ 644640.602576197939925, 5579677.405476558953524 ], [ 645392.187771614640951, 5579831.622223795391619 ], [ 645392.1176859496627, 5579934.714124925434589 ], [ 644795.930541535606608, 5580764.505220897495747 ], [ 642802.127826439216733, 5581063.764957874082029 ], [ 641748.715362794464454, 5581186.732975161634386 ], [ 641865.826414699782617, 5579890.923347691074014 ], [ 641038.006926306756213, 5579596.048364923335612 ], [ 639250.083864473970607, 5581455.808029087260365 ], [ 639234.640606750384904, 5582224.180814726278186 ], [ 638621.657645220751874, 5583042.598283235915005 ], [ 638315.348073058295995, 5583442.801317930221558 ], [ 637714.529529869789258, 5584054.274565255269408 ], [ 637383.341554941027425, 5584098.660970594733953 ], [ 635657.124590588500723, 5583436.388895886950195 ], [ 635059.490858686389402, 5583143.122184148058295 ], [ 632248.416796559933573, 5583372.826706447638571 ], [ 626977.56676048762165, 5582990.514437603764236 ], [ 626610.394234910141677, 5582436.659663568250835 ], [ 626149.988103028968908, 5581492.600890059024096 ], [ 625057.532211798126809, 5580176.522750575095415 ], [ 624874.196749484050088, 5579986.67689945269376 ], [ 624674.313826514757238, 5579922.60398758482188 ], [ 624471.906464723055251, 5579934.542902696877718 ], [ 624283.911454320303164, 5580025.839702313765883 ], [ 623760.271208518999629, 5580433.651699681766331 ], [ 621977.058071906678379, 5580469.813529085367918 ], [ 621848.235203117365018, 5579461.383647832088172 ], [ 622145.89858391310554, 5575760.316148860380054 ], [ 625989.136475676088594, 5572870.158456032164395 ], [ 628732.020692151272669, 5571245.885986931622028 ], [ 630807.90647839626763, 5570640.042148700915277 ], [ 630998.866847461904399, 5570649.879773350432515 ], [ 631146.144337119534612, 5570741.911659513600171 ], [ 631553.197653215611354, 5570556.92507659830153 ], [ 631887.178417510935105, 5569824.011485513299704 ], [ 631977.66435084270779, 5568407.645485197193921 ], [ 631781.760780051117763, 5567547.001519676297903 ], [ 631571.747069770121016, 5567289.576692224480212 ], [ 630916.201188753242604, 5566841.060999781824648 ], [ 630349.110954668838531, 5566672.545813545584679 ], [ 626199.341731377178803, 5566990.56448026932776 ], [ 624504.87345092697069, 5567194.724251003004611 ], [ 624636.119603806757368, 5567735.794300535693765 ], [ 623482.646165443933569, 5568011.864456380717456 ], [ 623166.939924409845844, 5567785.343803917057812 ], [ 623114.102025485248305, 5567526.073678462766111 ], [ 623141.594642168260179, 5565709.168624402955174 ], [ 623329.854817412560806, 5565653.905027316883206 ], [ 623522.738212882657535, 5563873.354080989956856 ], [ 623516.24691298766993, 5563748.124892549589276 ], [ 623486.845281003392301, 5563617.4325568433851 ], [ 623041.44563464471139, 5562921.944956417195499 ], [ 622935.909049450187013, 5562844.76679727435112 ], [ 622542.503294395515695, 5562749.800036424770951 ], [ 621002.677152535063215, 5563627.58951517008245 ], [ 620372.871848006965593, 5564340.509613639675081 ], [ 619517.617660187417641, 5564817.71538754273206 ], [ 618586.06229738635011, 5565207.317566501908004 ], [ 616626.026738512096927, 5564734.583988356404006 ], [ 615020.478764219209552, 5564799.385682330466807 ], [ 614845.787825102685019, 5565225.204904308542609 ], [ 614232.956999338930473, 5566885.178210051730275 ], [ 613375.418449030723423, 5570062.417613236233592 ], [ 613519.950803464860655, 5570737.852729805745184 ], [ 613938.664883983437903, 5573453.418229192495346 ], [ 613961.37821148824878, 5576947.660475214011967 ], [ 611819.530683265184052, 5577351.870853696018457 ], [ 611400.783317167428322, 5577372.456838361918926 ], [ 610604.502250541234389, 5579142.833680026233196 ], [ 608377.98450163542293, 5579180.018730953335762 ], [ 607855.600051861722022, 5578682.104205658659339 ], [ 607639.874505918240175, 5578709.780574899166822 ], [ 606564.855003884993494, 5579462.715332953259349 ], [ 604756.214964375481941, 5581160.604454019106925 ], [ 603791.061139522236772, 5582767.412859093397856 ], [ 603177.534714871319011, 5584356.294942412525415 ], [ 602806.073110816301778, 5584463.886656750924885 ], [ 602624.821503675309941, 5584469.236290268599987 ], [ 602178.484936065273359, 5584270.075563660822809 ], [ 602137.024104895652272, 5584093.100709414109588 ], [ 602135.38544475834351, 5584075.052648263052106 ], [ 602249.066602650796995, 5583549.931122710928321 ], [ 601202.837722405442037, 5583272.611760470084846 ], [ 599091.608285227557644, 5583450.162299421615899 ], [ 598668.639518114272505, 5584027.078934472985566 ], [ 598371.188165850471705, 5584434.394786267541349 ], [ 598334.524076625355519, 5585011.100669965147972 ], [ 598951.831611111760139, 5587249.315269636921585 ], [ 596635.494817108148709, 5589355.205896059982479 ], [ 595698.047050159191713, 5590727.353164329193532 ], [ 595169.662460468709469, 5593200.625287579372525 ], [ 594376.28220200445503, 5594425.558684543706477 ], [ 594020.437969359802082, 5594453.389678799547255 ], [ 592933.320382689707913, 5594367.349092380143702 ], [ 592776.212843067711219, 5594317.133979114703834 ], [ 588138.412966731586494, 5596452.031035776250064 ], [ 587285.121920026955195, 5598361.26434673089534 ], [ 585284.687569412053563, 5600973.825948517769575 ], [ 584809.719847641768865, 5601003.234866050072014 ], [ 584571.528634058660828, 5601003.415332538075745 ], [ 581523.587952240020968, 5600636.423631634563208 ], [ 581305.492093190201558, 5600385.817449746653438 ], [ 581273.785311654442921, 5599678.623766505159438 ], [ 581028.155977124231867, 5599601.593233164399862 ], [ 580073.598485346534289, 5600234.753725063987076 ], [ 579793.709203909151256, 5600712.455990541726351 ], [ 579706.814968146500178, 5601395.224181179888546 ], [ 579659.732420844840817, 5601644.4633579403162 ], [ 579350.465796817210503, 5601991.467802512459457 ], [ 578407.556000502663665, 5601852.261217731051147 ], [ 577925.95727922138758, 5601271.060344517230988 ], [ 577917.58193340478465, 5600795.52485364023596 ], [ 577517.762260598246939, 5600178.953789161518216 ], [ 575734.710126985562965, 5598139.285046414472163 ], [ 575544.860904854023829, 5597927.280306888744235 ], [ 574507.903884856496006, 5596849.463204767554998 ], [ 574131.180183643475175, 5596673.698850433342159 ], [ 573830.35406086279545, 5596604.555834048427641 ], [ 573644.620992326643318, 5597966.822298242710531 ], [ 574293.605173482908867, 5599818.371144602075219 ], [ 574952.414134709862992, 5600790.459033794701099 ], [ 574277.855973494355567, 5605579.459270126186311 ], [ 574167.904119193786755, 5605967.530597713775933 ], [ 573770.975097669754177, 5606195.660560206510127 ], [ 573424.597894402570091, 5607138.364778582938015 ], [ 574330.448765792069025, 5608462.752859105356038 ], [ 574822.129829654353671, 5608743.940904257819057 ], [ 575508.921498462092131, 5608681.814786018803716 ], [ 575649.155952119966969, 5608182.269303139299154 ], [ 576170.856320598861203, 5608019.717113485559821 ], [ 576609.537338222027756, 5608101.673593071289361 ], [ 576576.604577104211785, 5609429.040397054515779 ], [ 576269.658870735554956, 5609957.2290108660236 ], [ 576184.765825164038688, 5610096.618060019798577 ], [ 575365.596394599881023, 5612292.72493539750576 ], [ 574540.951198509661481, 5613597.22808373440057 ], [ 574300.595895173377357, 5613977.443218223750591 ], [ 574184.381921113701537, 5614082.167900000698864 ], [ 572924.7065275516361, 5614214.719593540765345 ], [ 572788.3115228243405, 5614228.966040789149702 ], [ 570655.74588369904086, 5614322.773628205060959 ], [ 570638.721381019684486, 5614323.427724773064256 ], [ 569908.704353041597642, 5614148.479915210977197 ], [ 567872.349124558153562, 5613447.620011676102877 ], [ 567403.521902935346588, 5613174.896170469000936 ], [ 567305.684902446111664, 5613113.864772070199251 ], [ 567198.453012384939939, 5613022.618687653914094 ], [ 567073.738712750608101, 5612855.957962987013161 ], [ 566957.821840050281025, 5612650.447771809995174 ], [ 567198.476296050706878, 5612035.859699669294059 ], [ 568511.222437891294248, 5610422.253124341368675 ], [ 567949.123728842590936, 5609074.821182292886078 ], [ 566934.746362949023023, 5608858.077095287851989 ], [ 562170.107313378131948, 5609548.926727307960391 ], [ 562067.808584497543052, 5610594.641850974410772 ], [ 562138.356998277828097, 5613329.154546475037932 ], [ 563217.280855298275128, 5615048.370244747959077 ], [ 564688.360537209897302, 5616922.673841836862266 ], [ 565925.472304570255801, 5619574.844348868355155 ], [ 566477.342442458029836, 5621178.299865950830281 ], [ 566202.982603308046237, 5623155.270357048138976 ], [ 565287.927223084843718, 5624353.6210559271276 ], [ 566757.343679373851046, 5624832.843146675266325 ], [ 566977.560290711815469, 5624978.431104207411408 ], [ 567157.02815717656631, 5625159.218716643750668 ], [ 567293.16109796136152, 5626437.987041792832315 ], [ 566617.514899002504535, 5627428.042131255380809 ], [ 566599.00533131021075, 5628043.150492268614471 ], [ 566952.647477695485577, 5629993.874183140695095 ], [ 567082.498606376349926, 5630350.796166596934199 ], [ 568437.131758582079783, 5631455.198398811742663 ], [ 568734.01312623731792, 5631669.40108041651547 ], [ 569587.878409029101022, 5631217.391470608301461 ], [ 570212.099490064429119, 5630984.886485023424029 ], [ 572081.335643206606619, 5631637.387979821301997 ], [ 573073.566123415366746, 5633141.755680006928742 ], [ 573122.727257552789524, 5633972.422807267867029 ], [ 572910.3462626170367, 5634081.195404376834631 ], [ 572317.356578410719521, 5633761.889891827479005 ], [ 572070.727960757212713, 5633438.617178170010448 ], [ 571907.222236422938295, 5633506.348946521058679 ], [ 571706.113551463116892, 5634537.08911809977144 ], [ 572070.997111943783239, 5635541.311872103251517 ], [ 573130.223563194158487, 5636359.499086131341755 ], [ 574473.282875232631341, 5637295.551860828883946 ], [ 574437.876870880369097, 5638150.526187525130808 ], [ 571298.838567957980558, 5641470.396826448850334 ], [ 569408.901225501671433, 5643064.246005984023213 ], [ 567923.879123636055738, 5642760.797770261764526 ], [ 567330.513371849316172, 5641722.896281716413796 ], [ 566740.450127196265385, 5642145.233690021559596 ], [ 567067.8804688610835, 5643267.794406782835722 ], [ 567429.552473665913567, 5643691.491557801142335 ], [ 568292.990712880622596, 5644097.383214399218559 ], [ 569186.705453133909032, 5643655.205063727684319 ], [ 570264.106347547261976, 5643284.817748343572021 ], [ 571149.323853057110682, 5643112.682948265224695 ], [ 573701.382640753756277, 5643604.984250570647418 ], [ 573995.607270502485335, 5643704.048553798347712 ], [ 574643.301320808706805, 5644187.614542244002223 ], [ 574673.62467736506369, 5644271.298525404185057 ], [ 574682.018654618179426, 5644350.536108194850385 ], [ 574451.822388201020658, 5644695.132381203584373 ], [ 573055.576799543574452, 5646814.46182167250663 ], [ 571859.817663863650523, 5648671.64765553176403 ], [ 571639.30599686014466, 5649720.014314690604806 ], [ 572354.722268090117723, 5651349.901968953199685 ], [ 572480.289023678284138, 5651523.599148578941822 ], [ 572665.594829027424566, 5651663.483675769530237 ], [ 572875.986354416236281, 5651750.838982644490898 ], [ 573979.761218100669794, 5651806.346809982322156 ], [ 575390.471874553826638, 5651680.953862749971449 ], [ 577775.608645999105647, 5651181.077214568853378 ], [ 579141.091257887310348, 5650770.51749341096729 ], [ 579089.475269247894175, 5650700.413210571743548 ], [ 579080.48701308562886, 5650601.1476034456864 ], [ 579103.574425079743378, 5650499.53177085518837 ], [ 579165.107416182174347, 5650426.725106058642268 ], [ 579445.453942519496195, 5650126.179959544911981 ], [ 579499.39247119310312, 5650082.241824753582478 ], [ 579552.227771696285345, 5650043.283463122323155 ], [ 580184.765234293183312, 5649796.946968794800341 ], [ 580335.438748735818081, 5649769.989087886177003 ], [ 580423.475387250771746, 5649771.781583573669195 ], [ 580553.184043970773928, 5649791.437682706862688 ], [ 582781.3253181821201, 5650367.246067631058395 ], [ 582993.131709732930176, 5650434.60939384996891 ], [ 584640.000978944241069, 5651492.002883872017264 ], [ 585239.100587854161859, 5653526.902748365886509 ], [ 584684.941941258264706, 5654445.398041179403663 ], [ 583871.035691725905053, 5655291.546891720965505 ], [ 583131.519936946686357, 5655826.939672166481614 ], [ 582023.305699687451124, 5656135.644898445345461 ], [ 580523.998896885896102, 5656629.53603105712682 ], [ 580044.649153459817171, 5657020.102250329218805 ], [ 580275.161420544143766, 5659951.240628943778574 ], [ 580363.162318277405575, 5660200.241371359676123 ], [ 581063.869661374017596, 5661127.284014367498457 ], [ 581274.004228369565681, 5661374.773071372881532 ], [ 582062.175977421109565, 5662282.587595773860812 ], [ 581202.723021772224456, 5663791.346329194493592 ], [ 580189.408640160341747, 5664403.210449308156967 ], [ 578464.387236363603733, 5665708.156196491792798 ], [ 578374.044040578068234, 5665966.530816350132227 ], [ 578967.913293054210953, 5666635.188063263893127 ], [ 581775.595929436967708, 5667502.128617963753641 ], [ 582739.3355547596002, 5666180.655315968208015 ], [ 582961.251608748571016, 5665310.443944405764341 ], [ 582406.944556176080368, 5664811.732063608244061 ], [ 583360.040792928077281, 5663521.064723617397249 ], [ 583565.184024768765084, 5663326.077070232480764 ], [ 583992.974244121811353, 5663059.567792430520058 ], [ 584741.675385162583552, 5663743.395986338146031 ], [ 584704.931996788363904, 5666281.790884534828365 ], [ 584560.871914614806883, 5666425.979117636568844 ], [ 584545.5186712667346, 5666442.678792677819729 ], [ 584509.686977542820387, 5666481.985899949446321 ], [ 584205.603967192582786, 5666915.151723759248853 ], [ 584095.946753038093448, 5667090.065594253130257 ], [ 584072.123667444335297, 5667374.818404196761549 ], [ 584509.96048167871777, 5668823.967287035658956 ], [ 585900.508453229675069, 5669836.165205026045442 ], [ 586251.420149709912948, 5670689.043048040010035 ], [ 585954.746602979605086, 5671347.555072586983442 ], [ 584606.880497809383087, 5671677.355338340625167 ], [ 582511.050307265948504, 5673544.198787897825241 ], [ 582004.713074546772987, 5673785.075686460360885 ], [ 581344.923057955456898, 5674041.837383045814931 ], [ 577543.635875932290219, 5674881.022215115837753 ], [ 575168.306987677933648, 5675339.964411104097962 ], [ 574860.567843606579117, 5675412.746486070565879 ], [ 574565.526432963670231, 5675647.923672176897526 ], [ 573875.92514493688941, 5680355.739097316749394 ], [ 573927.202285961830057, 5681079.383571241982281 ], [ 573484.323130613658577, 5681447.650051117874682 ], [ 572642.981872690375894, 5681479.50690752081573 ], [ 568639.143905207514763, 5681850.113713750615716 ], [ 567769.63314165500924, 5682036.524582619778812 ], [ 564772.756217652233317, 5688134.299452621489763 ], [ 564387.492123261326924, 5689552.575253739953041 ], [ 564332.541174586163834, 5691507.026996501721442 ], [ 564618.497174511663616, 5692010.27078221552074 ], [ 565617.711167492670938, 5692332.935808804817498 ], [ 568699.090382272726856, 5694590.690066210925579 ], [ 569643.397097721579485, 5695298.553509185090661 ], [ 571854.974192116642371, 5697169.256919452920556 ], [ 572512.590736472746357, 5697948.328964808024466 ], [ 575025.092521538492292, 5698709.295515654608607 ], [ 575796.227732044644654, 5698880.19448965229094 ], [ 576854.790688101784326, 5698650.642013696953654 ], [ 579561.446552121662535, 5698238.621654754504561 ], [ 580021.344291751738638, 5698311.081862905062735 ], [ 580186.038675729418173, 5698479.58691986836493 ], [ 581849.346063324715942, 5702836.20600688830018 ], [ 582618.717641519848257, 5703973.883098221383989 ], [ 583521.393394756247289, 5704661.917983785271645 ], [ 583742.830791314481758, 5704698.477988851256669 ], [ 584452.532129570143297, 5703764.217429448850453 ], [ 584462.966648817178793, 5703743.413504289463162 ], [ 585963.208157907705754, 5703695.060129266232252 ], [ 590008.105668209725991, 5705528.353284371085465 ], [ 590280.984046443598345, 5705692.074178165756166 ], [ 593251.880226370296441, 5708556.308405472896993 ], [ 594430.220834246603772, 5710346.952980317175388 ], [ 594768.642353473929688, 5710926.377112927846611 ], [ 595112.894708362757228, 5712295.591936051845551 ], [ 594783.492658047471195, 5712447.976800377480686 ], [ 595434.84615012886934, 5712994.782249254174531 ], [ 595520.094786035944708, 5713132.64486286137253 ], [ 595553.786908470327035, 5713295.472641460597515 ], [ 595582.277097729616798, 5713663.37096088193357 ], [ 595595.823900219635107, 5714174.081543132662773 ], [ 595569.434439932228997, 5714924.178064965642989 ], [ 595549.533614230342209, 5715064.891082142479718 ], [ 595503.889534155488946, 5715192.06361710652709 ], [ 595356.781601902213879, 5715435.255075953900814 ], [ 596128.002630448318087, 5715944.488919557072222 ], [ 598900.011348645901307, 5716644.896927509456873 ], [ 599084.092448796494864, 5716648.673138961195946 ], [ 600117.604840788990259, 5716276.537771217525005 ], [ 600198.914510449161753, 5716216.150368994101882 ], [ 603347.797785496572033, 5714744.42149982880801 ], [ 604188.010388350230642, 5713403.47322965413332 ], [ 604674.664708608877845, 5712757.884103427641094 ], [ 605309.739078179118223, 5712488.660441082902253 ], [ 608252.134606028907001, 5712888.315200929529965 ], [ 609989.76491541066207, 5714005.921132470481098 ], [ 610767.811757846735418, 5715012.767121495679021 ], [ 612925.929033742053434, 5714174.269663579761982 ], [ 613205.680121368612163, 5713759.634503263048828 ], [ 613427.96781392453704, 5713609.055648826062679 ], [ 614534.184544946649112, 5713500.640696551650763 ], [ 614908.092683231108822, 5714106.852372966706753 ], [ 615434.894911091891117, 5715163.608948296867311 ], [ 615384.984590215957724, 5715400.799002384766936 ], [ 614145.993151352973655, 5715979.905356157571077 ], [ 613507.838489099754952, 5716105.931615968234837 ], [ 613087.963794352137484, 5717446.517146504484117 ], [ 613095.422866081236862, 5718058.215353115461767 ], [ 613415.232219587895088, 5719933.447759667411447 ], [ 613593.448932649451308, 5720320.447763160802424 ], [ 614942.12787910096813, 5720784.542443478479981 ], [ 615616.344547654967755, 5721095.660386377945542 ], [ 616077.768244527862407, 5721387.392148412764072 ], [ 615950.524781840387732, 5722124.441331931389868 ], [ 617693.379904284607619, 5722548.604510124772787 ], [ 619086.841586163267493, 5722879.517835481092334 ], [ 621901.105236197588965, 5723477.85994925070554 ], [ 623773.617243698681705, 5722708.620564025826752 ], [ 625559.368923957459629, 5722703.297213989309967 ], [ 625636.471745292888954, 5722701.879823564551771 ], [ 625701.689816744299605, 5722694.211615634150803 ], [ 625764.112679902813397, 5722676.478687076829374 ], [ 628710.187795544043183, 5721735.126967946998775 ], [ 628772.87701033661142, 5721704.386090668849647 ], [ 628843.083964322577231, 5721648.776091591455042 ], [ 629081.321523014223203, 5721453.48584916908294 ] ] ] ] } }
]
}
